[{"OBJECT_NAME":"INMARSAT 4-F2 (SOUTHPAN/PRN 122)","OBJECT_ID":"2005-044A","EPOCH":"2026-04-05T18:33:40.248864","MEAN_MOTION":1.00271546,"ECCENTRICITY":0.0003435,"INCLINATION":4.9998,"RA_OF_ASC_NODE":43.7735,"ARG_OF_PERICENTER":352.7537,"MEAN_ANOMALY":219.4551,"EPHEMERIS_TYPE":0,"CLASSIFICATION_TYPE":"U","NORAD_CAT_ID":28899,"ELEMENT_SET_NO":999,"REV_AT_EPOCH":7479,"BSTAR":0,"MEAN_MOTION_DOT":-2.57e-6,"MEAN_MOTION_DDOT":0},{"OBJECT_NAME":"GSAT-8 (GAGAN/PRN 127)","OBJECT_ID":"2011-022A","EPOCH":"2026-04-05T18:08:27.665664","MEAN_MOTION":1.00272319,"ECCENTRICITY":0.0005583,"INCLINATION":1.9438,"RA_OF_ASC_NODE":82.6919,"ARG_OF_PERICENTER":225.0902,"MEAN_ANOMALY":213.4397,"EPHEMERIS_TYPE":0,"CLASSIFICATION_TYPE":"U","NORAD_CAT_ID":37605,"ELEMENT_SET_NO":999,"REV_AT_EPOCH":5249,"BSTAR":0,"MEAN_MOTION_DOT":8.7e-7,"MEAN_MOTION_DDOT":0},{"OBJECT_NAME":"LUCH 5A (SDCM/PRN 140)","OBJECT_ID":"2011-074B","EPOCH":"2026-04-05T16:57:41.953248","MEAN_MOTION":1.00271539,"ECCENTRICITY":0.0003142,"INCLINATION":8.5703,"RA_OF_ASC_NODE":74.8592,"ARG_OF_PERICENTER":287.6374,"MEAN_ANOMALY":252.8557,"EPHEMERIS_TYPE":0,"CLASSIFICATION_TYPE":"U","NORAD_CAT_ID":37951,"ELEMENT_SET_NO":999,"REV_AT_EPOCH":5232,"BSTAR":0,"MEAN_MOTION_DOT":-4.6e-7,"MEAN_MOTION_DDOT":0},{"OBJECT_NAME":"SES-5 (EGNOS/PRN 136)","OBJECT_ID":"2012-036A","EPOCH":"2026-04-05T16:11:29.739264","MEAN_MOTION":1.00273023,"ECCENTRICITY":0.0002095,"INCLINATION":0.0591,"RA_OF_ASC_NODE":303.5934,"ARG_OF_PERICENTER":73.8979,"MEAN_ANOMALY":64.3242,"EPHEMERIS_TYPE":0,"CLASSIFICATION_TYPE":"U","NORAD_CAT_ID":38652,"ELEMENT_SET_NO":999,"REV_AT_EPOCH":4372,"BSTAR":0,"MEAN_MOTION_DOT":3.5e-7,"MEAN_MOTION_DDOT":0},{"OBJECT_NAME":"GSAT-10 (GAGAN/PRN 128)","OBJECT_ID":"2012-051B","EPOCH":"2026-04-05T21:12:21.579840","MEAN_MOTION":1.00273082,"ECCENTRICITY":0.0006343,"INCLINATION":0.0805,"RA_OF_ASC_NODE":265.6473,"ARG_OF_PERICENTER":172.1928,"MEAN_ANOMALY":157.4125,"EPHEMERIS_TYPE":0,"CLASSIFICATION_TYPE":"U","NORAD_CAT_ID":38779,"ELEMENT_SET_NO":999,"REV_AT_EPOCH":4937,"BSTAR":0,"MEAN_MOTION_DOT":-1.63e-6,"MEAN_MOTION_DDOT":0},{"OBJECT_NAME":"LUCH 5B (SDCM/PRN 125)","OBJECT_ID":"2012-061A","EPOCH":"2026-04-05T16:05:22.826112","MEAN_MOTION":1.00273663,"ECCENTRICITY":0.0002303,"INCLINATION":10.3294,"RA_OF_ASC_NODE":50.5875,"ARG_OF_PERICENTER":229.5191,"MEAN_ANOMALY":138.8952,"EPHEMERIS_TYPE":0,"CLASSIFICATION_TYPE":"U","NORAD_CAT_ID":38977,"ELEMENT_SET_NO":999,"REV_AT_EPOCH":4888,"BSTAR":0,"MEAN_MOTION_DOT":-1.33e-6,"MEAN_MOTION_DDOT":0},{"OBJECT_NAME":"ASTRA 5B (EGNOS/PRN 123)","OBJECT_ID":"2014-011B","EPOCH":"2026-04-05T19:42:11.140128","MEAN_MOTION":1.00273659,"ECCENTRICITY":0.0003338,"INCLINATION":0.0718,"RA_OF_ASC_NODE":307.4353,"ARG_OF_PERICENTER":49.8929,"MEAN_ANOMALY":155.822,"EPHEMERIS_TYPE":0,"CLASSIFICATION_TYPE":"U","NORAD_CAT_ID":39617,"ELEMENT_SET_NO":999,"REV_AT_EPOCH":4394,"BSTAR":0,"MEAN_MOTION_DOT":1.39e-6,"MEAN_MOTION_DDOT":0},{"OBJECT_NAME":"LUCH 5V (SDCM/PRN 141)","OBJECT_ID":"2014-023A","EPOCH":"2026-04-05T21:52:21.758016","MEAN_MOTION":1.00270107,"ECCENTRICITY":0.0002925,"INCLINATION":4.9562,"RA_OF_ASC_NODE":70.451,"ARG_OF_PERICENTER":321.7923,"MEAN_ANOMALY":224.7809,"EPHEMERIS_TYPE":0,"CLASSIFICATION_TYPE":"U","NORAD_CAT_ID":39727,"ELEMENT_SET_NO":999,"REV_AT_EPOCH":4363,"BSTAR":0,"MEAN_MOTION_DOT":-2.65e-6,"MEAN_MOTION_DDOT":0},{"OBJECT_NAME":"GSAT-15 (GAGAN/PRN 139)","OBJECT_ID":"2015-065A","EPOCH":"2026-04-05T21:07:21.592128","MEAN_MOTION":1.00269213,"ECCENTRICITY":0.0002853,"INCLINATION":0.0168,"RA_OF_ASC_NODE":214.8735,"ARG_OF_PERICENTER":197.0018,"MEAN_ANOMALY":192.6242,"EPHEMERIS_TYPE":0,"CLASSIFICATION_TYPE":"U","NORAD_CAT_ID":41028,"ELEMENT_SET_NO":999,"REV_AT_EPOCH":3807,"BSTAR":0,"MEAN_MOTION_DOT":0,"MEAN_MOTION_DDOT":0},{"OBJECT_NAME":"EUTELSAT 117 WEST B (WAAS/PRN 131)","OBJECT_ID":"2016-038B","EPOCH":"2026-04-05T15:36:40.577760","MEAN_MOTION":1.00270922,"ECCENTRICITY":2.68e-5,"INCLINATION":0.0146,"RA_OF_ASC_NODE":59.4786,"ARG_OF_PERICENTER":233.8299,"MEAN_ANOMALY":17.8137,"EPHEMERIS_TYPE":0,"CLASSIFICATION_TYPE":"U","NORAD_CAT_ID":41589,"ELEMENT_SET_NO":999,"REV_AT_EPOCH":3593,"BSTAR":0,"MEAN_MOTION_DOT":-1.0e-7,"MEAN_MOTION_DDOT":0},{"OBJECT_NAME":"SES-15 (WAAS/PRN 133)","OBJECT_ID":"2017-026A","EPOCH":"2026-04-05T15:33:18.400896","MEAN_MOTION":1.00271138,"ECCENTRICITY":7.65e-5,"INCLINATION":0.0303,"RA_OF_ASC_NODE":321.5526,"ARG_OF_PERICENTER":62.8767,"MEAN_ANOMALY":273.6753,"EPHEMERIS_TYPE":0,"CLASSIFICATION_TYPE":"U","NORAD_CAT_ID":42709,"ELEMENT_SET_NO":999,"REV_AT_EPOCH":670,"BSTAR":0,"MEAN_MOTION_DOT":6.1e-7,"MEAN_MOTION_DDOT":0},{"OBJECT_NAME":"QZS-2 (QZSS/PRN 194)","OBJECT_ID":"2017-028A","EPOCH":"2026-04-05T06:31:36.480000","MEAN_MOTION":1.00253447,"ECCENTRICITY":0.0742095,"INCLINATION":39.5436,"RA_OF_ASC_NODE":244.2157,"ARG_OF_PERICENTER":270.6147,"MEAN_ANOMALY":276.4746,"EPHEMERIS_TYPE":0,"CLASSIFICATION_TYPE":"U","NORAD_CAT_ID":42738,"ELEMENT_SET_NO":999,"REV_AT_EPOCH":689,"BSTAR":0,"MEAN_MOTION_DOT":-2.03e-6,"MEAN_MOTION_DDOT":0},{"OBJECT_NAME":"QZS-3 (QZSS/PRN 199)","OBJECT_ID":"2017-048A","EPOCH":"2026-04-05T20:40:32.742048","MEAN_MOTION":1.00270886,"ECCENTRICITY":0.0002135,"INCLINATION":0.0653,"RA_OF_ASC_NODE":143.0036,"ARG_OF_PERICENTER":237.5537,"MEAN_ANOMALY":250.7709,"EPHEMERIS_TYPE":0,"CLASSIFICATION_TYPE":"U","NORAD_CAT_ID":42917,"ELEMENT_SET_NO":999,"REV_AT_EPOCH":3153,"BSTAR":0,"MEAN_MOTION_DOT":-3.46e-6,"MEAN_MOTION_DDOT":0},{"OBJECT_NAME":"QZS-4 (QZSS/PRN 195)","OBJECT_ID":"2017-062A","EPOCH":"2026-04-05T13:22:13.877184","MEAN_MOTION":1.00272593,"ECCENTRICITY":0.0747309,"INCLINATION":40.1522,"RA_OF_ASC_NODE":344.4118,"ARG_OF_PERICENTER":270.5045,"MEAN_ANOMALY":280.0496,"EPHEMERIS_TYPE":0,"CLASSIFICATION_TYPE":"U","NORAD_CAT_ID":42965,"ELEMENT_SET_NO":999,"REV_AT_EPOCH":3107,"BSTAR":0,"MEAN_MOTION_DOT":-3.28e-6,"MEAN_MOTION_DDOT":0},{"OBJECT_NAME":"BEIDOU-3 G1 (PRN 130)","OBJECT_ID":"2018-085A","EPOCH":"2026-04-01T20:42:38.441952","MEAN_MOTION":1.00268589,"ECCENTRICITY":0.00020589,"INCLINATION":2.882,"RA_OF_ASC_NODE":99.4564,"ARG_OF_PERICENTER":12.9832,"MEAN_ANOMALY":168.3736,"EPHEMERIS_TYPE":0,"CLASSIFICATION_TYPE":"U","NORAD_CAT_ID":43683,"ELEMENT_SET_NO":999,"REV_AT_EPOCH":2729,"BSTAR":0,"MEAN_MOTION_DOT":-2.84e-6,"MEAN_MOTION_DDOT":0},{"OBJECT_NAME":"EUTELSAT 5 WEST B (EGNOS/PRN 121)","OBJECT_ID":"2019-067A","EPOCH":"2026-04-05T19:34:04.418688","MEAN_MOTION":1.0027296,"ECCENTRICITY":0.0003469,"INCLINATION":0.0662,"RA_OF_ASC_NODE":13.2924,"ARG_OF_PERICENTER":12.4354,"MEAN_ANOMALY":96.8962,"EPHEMERIS_TYPE":0,"CLASSIFICATION_TYPE":"U","NORAD_CAT_ID":44624,"ELEMENT_SET_NO":999,"REV_AT_EPOCH":2371,"BSTAR":0,"MEAN_MOTION_DOT":-4.0e-7,"MEAN_MOTION_DDOT":0},{"OBJECT_NAME":"BEIDOU-3 G2 (PRN 144)","OBJECT_ID":"2020-017A","EPOCH":"2026-04-05T21:42:21.696192","MEAN_MOTION":1.00272127,"ECCENTRICITY":0.0002873,"INCLINATION":2.7196,"RA_OF_ASC_NODE":46.1612,"ARG_OF_PERICENTER":338.5909,"MEAN_ANOMALY":215.0832,"EPHEMERIS_TYPE":0,"CLASSIFICATION_TYPE":"U","NORAD_CAT_ID":45344,"ELEMENT_SET_NO":999,"REV_AT_EPOCH":2253,"BSTAR":0,"MEAN_MOTION_DOT":-1.38e-6,"MEAN_MOTION_DDOT":0}]
